{"type":"FeatureCollection","features":[{"type":"Feature","properties":{"Siren":"Mytholmroyd Fire Station","NGR":"SE0114626149","Address":"Mytholmroyd Fire Station, Mytholmroyd, Hebden Bridge","Postcode":"HX7 5DP","Easting":"401146","Northing":"426149","Long":"-1.98411","Lat":"53.7317"},"geometry":{"type":"Point","coordinates":[-1.984108,53.731734]}},{"type":"Feature","properties":{"Siren":"Hebden Bridge Fire Station","NGR":"SD9923627380","Address":"Hebden Bridge Fire Station, Hangingroyd Lane, Hebden Bridge","Postcode":"HX7 7DD","Easting":"399236","Northing":"427380","Long":"-2.01306","Lat":"53.7428"},"geometry":{"type":"Point","coordinates":[-2.013063,53.742799]}},{"type":"Feature","properties":{"Siren":"Hebden Vale Centre","NGR":"SD9881227197","Address":"Stubbing Holme Road , Stubbing Holme, Hebden Bridge","Postcode":"HX7 6LQ","Easting":"398812","Northing":"427197","Long":"-2.01949","Lat":"53.7412"},"geometry":{"type":"Point","coordinates":[-2.01949,53.741153]}},{"type":"Feature","properties":{"Siren":"Todmorden Fire Station","NGR":"SD9377924399","Address":"Todmorden Fire Station, Stansfield Road, Todmorden, ","Postcode":"OL14 5DL","Easting":"393779","Northing":"424399","Long":"-2.09574","Lat":"53.716"},"geometry":{"type":"Point","coordinates":[-2.09574,53.715967]}},{"type":"Feature","properties":{"Siren":"Todmorden Warmans International","NGR":"SD9428024251","Address":"Halifax Road, Todmorden","Postcode":"OL14 5RT","Easting":"394280","Northing":"424251","Long":"-2.08815","Lat":"53.7147"},"geometry":{"type":"Point","coordinates":[-2.088146,53.714643]}},{"type":"Feature","properties":{"Siren":"Todmorden Salford","NGR":"SD9337723797","Address":"Morrisons, Rochdale Road, Todmorden","Postcode":"OL14 6LG","Easting":"393377","Northing":"423797","Long":"-2.10182","Lat":"53.7106"},"geometry":{"type":"Point","coordinates":[-2.101818,53.710552]}},{"type":"Feature","properties":{"Siren":"Todmorden High School","NGR":"SD9281024999","Address":"Todmorden High School, Ewood Lane, Todmorden ","Postcode":"OL14 7DG","Easting":"392810","Northing":"424999","Long":"-2.11044","Lat":"53.7214"},"geometry":{"type":"Point","coordinates":[-2.110436,53.721348]}},{"type":"Feature","properties":{"Siren":"Walsden Flats","NGR":"SD9330722117","Address":"Rochdale Road, Walsden","Postcode":"OL14 6SA","Easting":"393307","Northing":"422117","Long":"-2.10284","Lat":"53.6955"},"geometry":{"type":"Point","coordinates":[-2.102842,53.695451]}}]}